EUTELSAT 115 WEST B     
1 40425U 15010B   25197.06982255 -.00000017  00000+0  00000+0 0  9990
2 40425   0.0038 169.6574 0000263  45.6797 349.0423  1.00270246 38069
EUTELSAT 8 WEST B       
1 40875U 15039B   25196.84072573 -.00000058  00000+0  00000+0 0  9993
2 40875   0.0626   4.0886 0003692 108.4129 116.0806  1.00271872 36280
EUTELSAT 9B             
1 41310U 16005A   25197.34563615  .00000069  00000+0  00000+0 0  9991
2 41310   0.0360  64.2447 0001212  47.9386 315.6487  1.00270721 34742
EUTELSAT 65 WEST A      
1 41382U 16014A   25197.43812646 -.00000268  00000+0  00000+0 0  9993
2 41382   0.0665 316.9240 0002246 164.0880 266.0066  1.00268383 34287
EUTELSAT 117 WEST B     
1 41589U 16038B   25196.03572354 -.00000003  00000+0  00000+0 0  9999
2 41589   0.0133 132.8867 0000157  21.0218  35.0810  1.00270415 33281
EUTELSAT 172B           
1 42741U 17029B   25195.09367714  .00000002  00000+0  00000+0 0  9996
2 42741   0.0166  84.4965 0000063  50.2078   3.2310  1.00269482 30341
EUTELSAT 7C             
1 44334U 19034B   25197.34528948  .00000056  00000+0  00000+0 0  9991
2 44334   0.0722 194.9618 0003322 265.9865 324.7811  1.00269659 22761
EUTELSAT 5 WEST B       
1 44624U 19067A   25197.34286280 -.00000035  00000+0  00000+0 0  9997
2 44624   0.0932 311.0453 0003160 166.0815 295.7130  1.00271512 21065
